[{"OBJECT_NAME":"STARLINK-35558","OBJECT_ID":"2025-235C","EPOCH":"2026-03-09T17:31:36.985152","MEAN_MOTION":15.30199235,"ECCENTRICITY":0.00010536,"INCLINATION":53.1589,"RA_OF_ASC_NODE":245.3685,"ARG_OF_PERICENTER":102.5501,"MEAN_ANOMALY":257.5617,"EPHEMERIS_TYPE":0,"CLASSIFICATION_TYPE":"U","NORAD_CAT_ID":66060,"ELEMENT_SET_NO":999,"REV_AT_EPOCH":2292,"BSTAR":0.00044392213,"MEAN_MOTION_DOT":0.00012811,"MEAN_MOTION_DDOT":0},{"OBJECT_NAME":"PEGASUS DEB","OBJECT_ID":"1994-029AG","EPOCH":"2026-03-09T11:16:42.963744","MEAN_MOTION":15.37636263,"ECCENTRICITY":0.0031206,"INCLINATION":82.0362,"RA_OF_ASC_NODE":86.2933,"ARG_OF_PERICENTER":155.6019,"MEAN_ANOMALY":204.671,"EPHEMERIS_TYPE":0,"CLASSIFICATION_TYPE":"U","NORAD_CAT_ID":23986,"ELEMENT_SET_NO":999,"REV_AT_EPOCH":61542,"BSTAR":0.00061808813,"MEAN_MOTION_DOT":0.00023279,"MEAN_MOTION_DDOT":0}]
